[{"OBJECT_NAME":"ALOS-2","OBJECT_ID":"2014-029A","EPOCH":"2026-03-09T22:07:16.177728","MEAN_MOTION":14.79502935,"ECCENTRICITY":0.00014489,"INCLINATION":97.9188,"RA_OF_ASC_NODE":167.5154,"ARG_OF_PERICENTER":94.7043,"MEAN_ANOMALY":265.4334,"EPHEMERIS_TYPE":0,"CLASSIFICATION_TYPE":"U","NORAD_CAT_ID":39766,"ELEMENT_SET_NO":999,"REV_AT_EPOCH":63690,"BSTAR":0.00010743863,"MEAN_MOTION_DOT":7.52e-6,"MEAN_MOTION_DDOT":0},{"OBJECT_NAME":"CZ-4C R\/B","OBJECT_ID":"2025-219B","EPOCH":"2026-03-09T21:33:38.923488","MEAN_MOTION":14.53036512,"ECCENTRICITY":0.01195895,"INCLINATION":98.6574,"RA_OF_ASC_NODE":20.2548,"ARG_OF_PERICENTER":261.9975,"MEAN_ANOMALY":96.7636,"EPHEMERIS_TYPE":0,"CLASSIFICATION_TYPE":"U","NORAD_CAT_ID":65816,"ELEMENT_SET_NO":999,"REV_AT_EPOCH":2383,"BSTAR":0.00012672736,"MEAN_MOTION_DOT":5.18e-6,"MEAN_MOTION_DDOT":0}]
